NORAD_CAT_ID,OBJECT_NAME,OBJECT_TYPE,EPOCH,MEAN_MOTION,ECCENTRICITY,INCLINATION,RA_OF_ASC_NODE,ARG_OF_PERICENTER,MEAN_ANOMALY,BSTAR,MEAN_MOTION_DOT,MEAN_MOTION_DDOT,TLE_LINE0,TLE_LINE1,TLE_LINE2,SEMIMAJOR_AXIS,PERIOD,APOGEE,PERIGEE,DECAYED
51151.0,STARLINK-3361,PAYLOAD,2023-01-01 02:16:18,15.0882902,0.000287,53.2183,132.6901,46.90600000000001,313.2172,0.00055714,8.587e-05,0.0,0 STARLINK-3361,1 51151U 22005AZ  23001.09465395  .00008587  00000-0  55714-3 0  9992,2 51151  53.2183 132.6901 0002870  46.9060 313.2172 15.08829020 54048,6917.9140000000025,95.438,541.764,537.794,0.0
51151.0,STARLINK-3361,PAYLOAD,2023-01-01 11:48:36,15.08829316,0.0002424999999999,53.2177,130.9057,39.8953,320.2217,-0.0003164,-5.319e-05,0.0,0 STARLINK-3361,1 51151U 22005AZ  23001.49209094 -.00005319  00000-0 -31640-3 0  9992,2 51151  53.2177 130.9057 0002425  39.8953 320.2217 15.08829316 52990,6917.913000000001,95.438,541.456,538.1,0.0
51151.0,STARLINK-3361,PAYLOAD,2023-01-01 18:10:10,15.08826525,0.0002654,53.2188,129.717,40.8021,319.3169,-0.00021797,-3.755e-05,0.0,0 STARLINK-3361,1 51151U 22005AZ  23001.75706494 -.00003755  00000-0 -21797-3 0  9991,2 51151  53.2188 129.7170 0002654  40.8021 319.3169 15.08826525 53036,6917.922,95.438,541.623,537.951,0.0
51151.0,STARLINK-3361,PAYLOAD,2023-01-02 03:42:28,15.08831959,0.0002671,53.2186,127.9333,40.3701,319.7489,-0.00013594,-2.451e-05,0.0,0 STARLINK-3361,1 51151U 22005AZ  23002.15450123 -.00002451  00000-0 -13594-3 0  9999,2 51151  53.2186 127.9333 0002671  40.3701 319.7489 15.08831959 54200,6917.905,95.438,541.618,537.922,0.0
51151.0,STARLINK-3361,PAYLOAD,2023-01-02 10:04:00,15.08836587,0.000271,53.2185,126.7444,38.4699,321.6486,-9.5919e-07,-3.04e-06,0.0,0 STARLINK-3361,1 51151U 22005AZ  23002.41945601 -.00000304  00000-0 -95919-6 0  9997,2 51151  53.2185 126.7444 0002710  38.4699 321.6486 15.08836587 54242,6917.891,95.438,541.631,537.881,0.0
51151.0,STARLINK-3361,PAYLOAD,2023-01-02 14:50:10,15.08840799,0.0002768999999999,53.2186,125.853,37.3529,322.7655,6.8358000000000015e-06,-1.8e-06,0.0,0 STARLINK-3361,1 51151U 22005AZ  23002.61817357 -.00000180  00000-0  68358-5 0  9992,2 51151  53.2186 125.8530 0002769  37.3529 322.7655 15.08840799 53163,6917.878000000002,95.438,541.659,537.827,0.0
51151.0,STARLINK-3361,PAYLOAD,2023-01-03 06:44:01,15.08844991,0.0002876,53.2186,122.8794,39.0604,321.0596,0.00014201,1.973e-05,0.0,0 STARLINK-3361,1 51151U 22005AZ  23003.28057141  .00001973  00000-0  14201-3 0  9999,2 51151  53.2186 122.8794 0002876  39.0604 321.0596 15.08844991 54372,6917.865,95.437,541.72,537.741,0.0
51151.0,STARLINK-3361,PAYLOAD,2023-01-03 08:19:24,15.08846374,0.0002819,53.2176,122.5817,35.904,324.2141,0.00013747,1.9e-05,0.0,0 STARLINK-3361,1 51151U 22005AZ  23003.34681441  .00001900  00000-0  13747-3 0  9996,2 51151  53.2176 122.5817 0002819  35.9040 324.2141 15.08846374 53276,6917.861,95.437,541.6759999999998,537.776,0.0
51151.0,STARLINK-3361,PAYLOAD,2023-01-04 14:31:44,15.08845601,0.000288,53.2178,116.9322,38.1513,321.9683,0.00017389,2.481e-05,0.0,0 STARLINK-3361,1 51151U 22005AZ  23004.60537798  .00002481  00000-0  17389-3 0  9992,2 51151  53.2178 116.9322 0002880  38.1513 321.9683 15.08845601 54575,6917.863,95.437,541.721,537.736,0.0
51151.0,STARLINK-3361,PAYLOAD,2023-01-05 08:00:58,15.08857668,0.0002699,53.2201,113.6628,38.194,321.9243,0.00033639,5.072e-05,0.0,0 STARLINK-3361,1 51151U 22005AZ  23005.33400588  .00005072  00000-0  33639-3 0  9994,2 51151  53.2201 113.6628 0002699  38.1940 321.9243 15.08857668 54687,6917.826,95.436,541.559,537.8240000000002,0.0
51151.0,STARLINK-3361,PAYLOAD,2023-01-05 09:36:21,15.08855746,0.0002763,53.2176,113.3641,31.3473,328.7683,0.00027016,4.016e-05,0.0,0 STARLINK-3361,1 51151U 22005AZ  23005.40024618  .00004016  00000-0  27016-3 0  9997,2 51151  53.2176 113.3641 0002763  31.3473 328.7683 15.08855746 53584,6917.831999999999,95.437,541.609,537.786,0.0
51151.0,STARLINK-3361,PAYLOAD,2023-01-05 17:33:16,15.08856618,0.0002875,53.2179,111.8774,31.1228,328.9934,0.00020236,2.935e-05,0.0,0 STARLINK-3361,1 51151U 22005AZ  23005.73144354  .00002935  00000-0  20236-3 0  9998,2 51151  53.2179 111.8774 0002875  31.1228 328.9934 15.08856618 53633,6917.83,95.437,541.683,537.706,0.0
51151.0,STARLINK-3361,PAYLOAD,2023-01-06 06:16:22,15.08840977,0.0003017,53.2181,109.5017,35.0538,325.0652,-2.3532e-06,-3.26e-06,0.0,0 STARLINK-3361,1 51151U 22005AZ  23006.26137075 -.00000326  00000-0 -23532-5 0  9997,2 51151  53.2181 109.5017 0003017  35.0538 325.0652 15.08840977 54824,6917.877,95.437,541.83,537.655,0.0
51151.0,STARLINK-3361,PAYLOAD,2023-01-06 07:51:45,15.08828574,0.0002653,53.2197,109.202,26.9637,333.1492,-0.00018786,-3.276e-05,0.0,0 STARLINK-3361,1 51151U 22005AZ  23006.32761552 -.00003276  00000-0 -18786-3 0  9997,2 51151  53.2197 109.2020 0002653  26.9637 333.1492 15.08828574 54838,6917.915,95.438,541.616,537.945,0.0
51151.0,STARLINK-3361,PAYLOAD,2023-01-06 15:48:41,15.08826147,0.0002634999999999,53.2181,107.7146,25.591,334.5213,-0.00019373,-3.369e-05,0.0,0 STARLINK-3361,1 51151U 22005AZ  23006.65881870 -.00003369  00000-0 -19373-3 0  9995,2 51151  53.2181 107.7146 0002635  25.5910 334.5213 15.08826147 53774,6917.923000000002,95.438,541.611,537.965,0.0
51151.0,STARLINK-3361,PAYLOAD,2023-01-06 23:45:37,15.08830702,0.0002665,53.2179,106.2281,25.2273,334.8849,-0.00016637,-2.935e-05,0.0,0 STARLINK-3361,1 51151U 22005AZ  23006.99001548 -.00002935  00000-0 -16637-3 0  9996,2 51151  53.2179 106.2281 0002665  25.2273 334.8849 15.08830702 54936,6917.9090000000015,95.438,541.617,537.93,0.0
51151.0,STARLINK-3361,PAYLOAD,2023-01-07 06:07:09,15.08837712,0.0002548,53.2182,105.0389,19.1693,340.9394,8.871e-05,1.124e-05,0.0,0 STARLINK-3361,1 51151U 22005AZ  23007.25497402  .00001124  00000-0  88710-4 0  9993,2 51151  53.2182 105.0389 0002548  19.1693 340.9394 15.08837712 53866,6917.887,95.438,541.515,537.99,0.0
51151.0,STARLINK-3361,PAYLOAD,2023-01-07 09:17:56,15.08841171,0.0002563999999999,53.2178,104.444,20.1885,339.9208,0.00020375,2.956e-05,0.0,0 STARLINK-3361,1 51151U 22005AZ  23007.38745415  .00002956  00000-0  20375-3 0  9993,2 51151  53.2178 104.4440 0002564  20.1885 339.9208 15.08841171 54996,6917.877,95.437,541.516,537.9680000000002,0.0
51151.0,STARLINK-3361,PAYLOAD,2023-01-07 15:39:29,15.08836209,0.0002647,53.2177,103.2547,19.5149,340.5944,0.0005952,9.196e-05,0.0,0 STARLINK-3361,1 51151U 22005AZ  23007.65242047  .00009196  00000-0  59520-3 0  9993,2 51151  53.2177 103.2547 0002647  19.5149 340.5944 15.08836209 55034,6917.892,95.438,541.5880000000002,537.9259999999998,0.0
51151.0,STARLINK-3361,PAYLOAD,2023-01-07 23:36:25,15.08832038,0.000268,53.2175,101.7679,19.9506,340.159,0.0003306,4.976e-05,0.0,0 STARLINK-3361,1 51151U 22005AZ  23007.98362426  .00004976  00000-0  33060-3 0  9995,2 51151  53.2175 101.7679 0002680  19.9506 340.1590 15.08832038 55083,6917.905,95.438,541.624,537.9159999999998,0.0
51151.0,STARLINK-3361,PAYLOAD,2023-01-08 12:19:30,15.08832795,0.0002752,53.218,99.3891,20.5519,339.5584,0.00026159,3.877e-05,0.0,0 STARLINK-3361,1 51151U 22005AZ  23008.51354749  .00003877  00000-0  26159-3 0  9994,2 51151  53.2180  99.3891 0002752  20.5519 339.5584 15.08832795 54050,6917.901999999999,95.438,541.6709999999998,537.864,0.0
51151.0,STARLINK-3361,PAYLOAD,2023-01-08 15:30:16,15.08835588,0.0002825,53.2179,98.7945,20.5531,339.5574,0.00028078,4.183e-05,0.0,0 STARLINK-3361,1 51151U 22005AZ  23008.64602725  .00004183  00000-0  28078-3 0  9991,2 51151  53.2179  98.7945 0002825  20.5531 339.5574 15.08835588 54070,6917.894,95.438,541.7130000000002,537.805,0.0
51151.0,STARLINK-3361,PAYLOAD,2023-01-09 05:48:44,15.0884566,0.0002829,53.2179,96.1182,23.1118,337.0001,0.00027983,4.169e-05,0.0,0 STARLINK-3361,1 51151U 22005AZ  23009.24218387  .00004169  00000-0  27983-3 0  9993,2 51151  53.2179  96.1182 0002829  23.1118 337.0001 15.08845660 55272,6917.863,95.437,541.685,537.771,0.0
51151.0,STARLINK-3361,PAYLOAD,2023-01-10 05:39:31,15.08844213,0.0003037,53.2176,91.6586,25.3376,334.7764,0.00015782,2.224e-05,0.0,0 STARLINK-3361,1 51151U 22005AZ  23010.23578478  .00002224  00000-0  15782-3 0  9998,2 51151  53.2176  91.6586 0003037  25.3376 334.7764 15.08844213 55429,6917.868,95.437,541.8330000000002,537.632,0.0
51151.0,STARLINK-3361,PAYLOAD,2023-01-10 13:36:27,15.08839696,0.0002957,53.2181,90.1715,20.9859,339.1254,9.992e-05,1.302e-05,0.0,0 STARLINK-3361,1 51151U 22005AZ  23010.56698598  .00001302  00000-0  99920-4 0  9993,2 51151  53.2181  90.1715 0002957  20.9859 339.1254 15.08839696 54364,6917.880999999999,95.438,541.7919999999998,537.701,0.0
51151.0,STARLINK-3361,PAYLOAD,2023-01-10 15:11:50,15.08840214,0.0002966,53.2181,89.8742,21.1918,338.9196,9.5456e-05,1.231e-05,0.0,0 STARLINK-3361,1 51151U 22005AZ  23010.63322590  .00001231  00000-0  95456-4 0  9998,2 51151  53.2181  89.8742 0002966  21.1918 338.9196 15.08840214 54379,6917.88,95.438,541.797,537.693,0.0
51151.0,STARLINK-3361,PAYLOAD,2023-01-11 11:51:50,15.088525099999998,0.0002969,53.2179,86.0086,21.0431,339.0683,0.00027086,4.026e-05,0.0,0 STARLINK-3361,1 51151U 22005AZ  23011.49433892  .00004026  00000-0  27086-3 0  9999,2 51151  53.2179  86.0086 0002969  21.0431 339.0683 15.08852510 55611,6917.842,95.437,541.761,537.653,0.0
51151.0,STARLINK-3361,PAYLOAD,2023-01-11 21:24:11,15.08819677,0.0003447,53.2181,84.2243,35.5628,324.5593,-0.00024571,-4.195e-05,0.0,0 STARLINK-3361,1 51151U 22005AZ  23011.89179571 -.00004195  00000-0 -24571-3 0  9999,2 51151  53.2181  84.2243 0003447  35.5628 324.5593 15.08819677 54568,6917.943,95.439,542.192,537.423,0.0
51151.0,STARLINK-3361,PAYLOAD,2023-01-12 05:21:06,15.08819141,0.0002844,53.2182,82.7379,26.4502,333.6635,-0.00024324,-4.156e-05,0.0,0 STARLINK-3361,1 51151U 22005AZ  23012.22299655 -.00004156  00000-0 -24324-3 0  9996,2 51151  53.2182  82.7379 0002844  26.4502 333.6635 15.08819141 55725,6917.944,95.439,541.7769999999998,537.842,0.0
